2015 VS173,e,11.8421,212.0882,95.9380,45.41539,0.0032203,0.13600314,90.2003,04/27.0/2019,2000,H 8.5,0.15
# From MPO458720
2015 VT173,e,3.4657,151.0327,262.3648,43.01204,0.0034940,0.02908837,0.9115,04/27.0/2019,2000,H 9.1,0.15
# From MPO361314
2015 XN63,e,19.6894,229.3256,91.6375,20.81483,0.0103787,0.93470472,3.3948,12/04.0/2015,2000,H15.1,0.15
# From MPO389158
2015 XX351,e,159.0924,332.4530,252.6732,14.57648,0.0177103,0.85420766,18.5162,04/27.0/2019,2000,H15.9,0.15
# From MPO466782
2015 XW379,e,11.8964,144.2281,50.1075,27.85162,0.0067055,0.37822280,328.8542,04/27.0/2019,2000,H 7.1,0.15
# From MPO386958
2015 XQ384,e,21.4655,242.0129,147.7901,12.67658,0.0218374,0.64774126,34.3009,04/27.0/2019,2000,H15.9,0.15
# From MPO386958
2015 XR384,e,157.5137,1.9523,271.2597,36.92845,0.0043920,0.90329327,6.0866,04/27.0/2019,2000,H16.1,0.15
# From MPO394303
2015 YY18,e,118.2434,258.1640,147.9132,19.46082,0.0114805,0.83093459,14.2821,04/27.0/2019,2000,H14.9,0.15
# From MPO369310
2016 AK51,e,3.8416,291.7481,143.1950,7.502884,0.0479581,0.45841167,12.3666,12/24.0/2015,2000,H15.5,0.15
# From MPO369312
2016 AF67,e,13.9627,301.2398,123.9742,7.552852,0.0474829,0.47548642,15.6989,12/24.0/2015,2000,H15.2,0.15
# From MPO369312
2016 AM67,e,11.3557,118.7845,309.9353,7.473212,0.0482440,0.44584083,14.8025,12/24.0/2015,2000,H14.5,0.15
# From MPO466792
2016 AN278,e,6.9582,190.3300,272.0731,46.68495,0.0030899,0.21173997,7.5167,04/27.0/2019,2000,H 7.0,0.15
# From MPO457068
2016 BJ81,e,13.3220,102.6973,62.0980,9.659488,0.0328302,0.48360414,28.1555,04/27.0/2019,2000,H13.5,0.15
# From MPO394305
2016 CO264,e,129.8197,178.1250,66.6992,48.37874,0.0029290,0.93767574,2.8837,04/27.0/2019,2000,H16.2,0.15
# From MPO438914
2016 CD289,e,30.7421,340.3703,15.1861,55.95542,0.0023547,0.34571034,107.9061,04/27.0/2019,2000,H 7.3,0.15
# From MPO466800
2016 CN323,e,13.1160,295.4881,272.1488,97.64909,0.0010214,0.64508650,338.3323,04/27.0/2019,2000,H 7.1,0.15
# From MPO373623
2016 DF2,e,167.0304,133.4687,355.4971,6.425306,0.0605150,0.48134888,357.1286,02/22.0/2016,2000,H17.1,0.15
# From MPO399568
2016 EJ203,e,170.9883,7.0610,227.5764,67.77238,0.0017665,0.95964973,1.8117,04/27.0/2019,2000,H18.1,0.15
# From MPO377935
2016 FD14,e,20.2505,215.8203,328.8710,20.96665,0.0102662,0.49416754,359.8884,03/13.0/2016,2000,H12.6,0.15
# From MPO377944
2016 FT58,e,15.3064,242.9724,293.4932,41.99003,0.0036223,0.02501338,359.9464,03/13.0/2016,2000,H 7.8,0.15
# From MPO382817
2016 FU58,e,25.4803,337.2438,295.9254,39.75592,0.0039319,0.19719150,284.5850,03/13.0/2016,2000,H 7.7,0.15
# From MPO377944
2016 FV58,e,7.8147,264.4702,88.7019,41.12074,0.0037378,0.01645661,181.0039,03/13.0/2016,2000,H 7.8,0.15
# From MPO377944
2016 FW58,e,20.2816,327.2363,208.0259,42.02206,0.0036182,0.05847261,359.9464,03/13.0/2016,2000,H 7.8,0.15
# From MPO451760
2016 FX58,e,22.9676,332.0573,327.2095,54.63931,0.0024403,0.28768140,271.4007,04/27.0/2019,2000,H 5.9,0.15
# From MPO377944
2016 FY58,e,14.3799,325.5046,210.8020,41.61441,0.0036715,0.07029528,359.9456,03/13.0/2016,2000,H 8.3,0.15
# From MPO377944
2016 FZ58,e,8.5830,284.7366,251.3499,44.65724,0.0033027,0.00762264,359.9512,03/13.0/2016,2000,H 7.9,0.15
# From MPO382817
2016 FA59,e,23.8616,338.0748,280.0804,39.15712,0.0040224,0.04672671,284.3773,03/13.0/2016,2000,H 8.5,0.15
# From MPO377944
2016 FB59,e,18.3654,259.1559,283.4740,41.63397,0.0036689,0.06219886,359.9455,03/13.0/2016,2000,H 8.6,0.15
# From MPO377944
2016 FC59,e,17.1651,306.8024,234.1055,41.81884,0.0036446,0.02043691,359.9459,03/13.0/2016,2000,H 7.6,0.15
# From MPO382817
2016 FD59,e,19.9794,206.6069,326.6889,39.38128,0.0039881,0.21314284,1.5225,03/13.0/2016,2000,H 9.2,0.15
# From MPO377944
2016 FE59,e,10.5652,238.5838,300.3216,42.01461,0.0036191,0.09700145,359.9461,03/13.0/2016,2000,H 8.6,0.15
# From MPO377944
2016 FF59,e,14.1165,206.3947,152.1577,41.32990,0.0037094,0.01427557,178.7698,03/13.0/2016,2000,H 8.1,0.15
# From MPO377944
2016 FG59,e,28.3546,329.5961,38.8364,41.17854,0.0037299,0.12893979,181.1735,03/13.0/2016,2000,H 7.1,0.15
# From MPO382817
2016 FH59,e,15.5419,302.7003,197.8461,42.26546,0.0035870,0.07230286,39.2506,03/13.0/2016,2000,H 7.6,0.15
# From MPO382817
2016 FJ59,e,22.9313,349.1324,298.9000,38.89346,0.0040634,0.04985669,260.6127,03/13.0/2016,2000,H 8.2,0.15
# From MPO377944
2016 FK59,e,27.6071,347.8852,197.1772,41.85598,0.0036397,0.37854382,359.9450,03/13.0/2016,2000,H10.0,0.15
# From MPO380426
2016 FL59,e,6.9202,275.0522,1.4825,1237,0.0000226,0.98337414,0.0000,11/18.8446/2045,2000,H 6.9,0.15
# From MPO382817
2016 FM59,e,27.8783,200.8145,342.6751,39.23028,0.0040112,0.18280742,0.6676,03/13.0/2016,2000,H 9.3,0.15
# From MPO473437
2016 FN59,e,5.7482,229.5597,279.4818,58.49816,0.0022029,0.38839307,16.2773,04/27.0/2019,2000,H 6.8,0.15
# From MPO382817
2016 FO59,e,23.2198,198.7941,260.9834,39.76551,0.0039305,0.10458033,70.2275,03/13.0/2016,2000,H 7.8,0.15
# From MPO377944
2016 FQ59,e,17.8887,332.2412,38.8659,41.39331,0.0037009,0.00775934,179.0361,03/13.0/2016,2000,H 7.6,0.15
# From MPO473437
2016 FR59,e,10.2589,300.8943,128.7954,36.33089,0.0045008,0.03171208,107.0132,04/27.0/2019,2000,H 6.7,0.15
# From MPO377944
2016 FS59,e,24.9051,231.4439,309.5300,41.71328,0.0036584,0.23176035,359.9419,03/13.0/2016,2000,H 9.6,0.15
# From MPO382817
2016 FT59,e,17.0771,304.0241,109.4984,43.41710,0.0034452,0.06475460,121.0348,03/13.0/2016,2000,H 7.6,0.15
# From MPO382817
2016 FU59,e,24.3026,206.1122,130.6304,42.39363,0.0035707,0.19949534,219.6209,03/13.0/2016,2000,H 6.9,0.15
# From MPO382817
2016 FV59,e,9.8787,212.1970,325.7515,42.05548,0.0036139,0.03639075,4.4304,03/13.0/2016,2000,H 8.1,0.15
# From MPO382818
2016 FX59,e,29.6074,211.0997,274.0790,42.46201,0.0035621,0.05963259,55.6658,03/13.0/2016,2000,H 8.0,0.15
# From MPO382818
2016 FY59,e,30.9919,208.9847,316.6825,44.02884,0.0033736,0.12891401,18.0353,03/13.0/2016,2000,H 7.9,0.15
# From MPO382818
2016 FZ59,e,20.5103,297.3698,227.5458,43.44465,0.0034419,0.14841595,15.0066,03/13.0/2016,2000,H 8.7,0.15
# From MPO382818
2016 FA60,e,23.8513,311.7907,252.3068,43.01153,0.0034940,0.16598502,347.6587,03/13.0/2016,2000,H 9.1,0.15
# From MPO382818
2016 FB60,e,9.9691,291.9122,249.7922,43.10018,0.0034833,0.12472250,1.1510,03/13.0/2016,2000,H 8.6,0.15
# From MPO382818
2016 FC60,e,7.7112,308.4141,246.2148,43.09247,0.0034842,0.19866339,351.4113,03/13.0/2016,2000,H 8.8,0.15
# From MPO382818
2016 FD60,e,16.5834,201.6394,74.4755,42.88998,0.0035089,0.14656905,281.5441,03/13.0/2016,2000,H 8.1,0.15
# From MPO382818
2016 FE60,e,9.5998,239.0651,302.5557,42.57189,0.0035483,0.15046477,1.0815,03/13.0/2016,2000,H 8.7,0.15
# From MPO457097
2016 GR206,e,14.2323,93.4740,73.4072,20.25962,0.0108083,0.08044335,20.9452,04/27.0/2019,2000,H 9.3,0.15
# From MPO377978
2016 GC241,e,4.2039,330.2115,180.0468,21.65747,0.0097790,0.36349903,14.0850,03/13.0/2016,2000,H10.6,0.15
# From MPO473440
2016 GZ251,e,29.3113,37.3396,85.7599,17.91679,0.0129961,0.42944789,47.3905,04/27.0/2019,2000,H11.1,0.15
# From MPO473442
2016 JK24,e,152.3259,36.7169,284.6189,13.07224,0.0208535,0.66082638,7.4350,04/27.0/2019,2000,H13.2,0.15
# From MPO435117
2016 KX4,e,37.5601,84.0895,252.7053,7.037090,0.0527976,0.67632342,37.6298,04/27.0/2019,2000,H14.8,0.15
# From MPO473443
2016 LS,e,114.3382,117.5334,141.1141,13.32464,0.0202638,0.60688548,31.1406,04/27.0/2019,2000,H13.3,0.15
# From MPO473445
2016 ND21,e,21.8327,286.8211,60.4487,8.452381,0.0401084,0.55475001,23.9580,04/27.0/2019,2000,H12.3,0.15
# From MPO466830
2016 NZ90,e,21.4003,296.7788,350.0715,48.00988,0.0029628,0.28554727,2.5755,04/27.0/2019,2000,H 7.0,0.15
# From MPO412081
2016 PN66,e,105.1134,217.1003,196.7339,31.23638,0.0056456,0.90708085,5.2255,04/27.0/2019,2000,H13.4,0.15
# From MPO435120
2016 PW84,e,14.5336,300.0588,87.5384,5.811525,0.0703508,0.28003632,34.7531,04/27.0/2019,2000,H14.6,0.15
# From MPO444799
2016 PA101,e,20.5017,91.3033,351.2072,40.23271,0.0038622,0.08650850,317.7495,04/27.0/2019,2000,H 8.2,0.15
# From MPO451796
2016 QP85,e,15.6205,121.2078,277.9358,59.48380,0.0021484,0.33079970,1.0405,04/27.0/2019,2000,H 7.3,0.15
# From MPO473456
2016 QF86,e,13.6335,274.8256,227.3142,21.12601,0.0101503,0.30874678,208.2700,04/27.0/2019,2000,H 8.4,0.15
# From MPO466837
2016 QU89,e,16.9909,102.8046,303.2878,168.5756,0.0004503,0.79090694,359.7115,04/27.0/2019,2000,H 7.9,0.15
# From MPO466837
2016 QV89,e,21.3924,173.2171,281.1883,167.9477,0.0004528,0.76212569,354.8551,04/27.0/2019,2000,H 5.9,0.15
# From MPO423857
2016 SS46,e,15.0668,142.6154,319.1126,43.29705,0.0034595,0.38455985,331.4933,09/29.0/2016,2000,H 8.7,0.15
# From MPO444959
2016 SW50,e,32.5466,61.0391,333.7752,72.83739,0.0015855,0.50778029,358.9523,04/27.0/2019,2000,H 8.7,0.15
# From MPO450684
2016 SP55,e,15.6410,119.9983,60.2205,42.02550,0.0036177,0.12555911,214.1412,09/09.0/2016,2000,H 7.9,0.15
# From MPO466841
2016 SS55,e,28.5099,182.8036,157.5313,72.99680,0.0015803,0.47638361,20.0731,04/27.0/2019,2000,H 6.6,0.15
# From MPO466841
2016 SE56,e,26.7855,175.1076,218.5613,69.13403,0.0017146,0.55092319,0.0911,04/27.0/2019,2000,H 7.2,0.15
# From MPO466842
2016 SP56,e,20.0923,75.1554,33.1124,49.93975,0.0027928,0.27576862,318.1411,04/27.0/2019,2000,H 6.5,0.15
# From MPO466842
2016 SG58,e,13.2260,118.8932,296.2702,227.0254,0.0002881,0.84534449,359.3904,04/27.0/2019,2000,H 7.5,0.15
# From MPO466842
2016 SV58,e,13.5965,132.4905,305.8325,44.70283,0.0032976,0.26354396,338.3342,04/27.0/2019,2000,H 8.1,0.15
# From MPO397881
2016 TK2,e,92.3357,323.3418,5.3333,9.178248,0.0354458,0.55139770,35.2729,04/27.0/2019,2000,H14.9,0.15
# From MPO392531
2016 TP93,e,138.3299,347.2310,331.8655,7.572849,0.0472950,0.56530419,359.7410,09/29.0/2016,2000,H15.7,0.15
# From MPO466845
2016 TY94,e,25.6793,108.5951,278.6644,48.72446,0.0028979,0.24378718,0.9559,04/27.0/2019,2000,H 7.1,0.15
# From MPO444983
2016 TS97,e,32.2117,146.1928,64.7689,53.94654,0.0024875,0.32628965,191.0526,04/27.0/2019,2000,H 6.1,0.15
# From MPO466846
2016 TT100,e,9.7080,55.2678,45.0628,8.917311,0.0370129,0.58794558,20.6503,04/27.0/2019,2000,H15.0,0.15
# From MPO403118
